{
  "type": "FeatureCollection",
  "features": [
    {
      "type": "Feature",
      "properties": {
        "norad_id": 33986,
        "name": "COSMOS 2251 DEB",
        "group": "cosmos-2251-debris",
        "lat": -31.03933050647836,
        "lon": -92.54445997864089,
        "alt_km": 725.7643013116895,
        "timestamp": "2025-12-26T08:37:54.972915+00:00",
        "meta_object_name": "COSMOS 2251 DEB",
        "meta_object_id": "1993-036FV",
        "meta_epoch": "2025-12-24T20:26:35.700576",
        "meta_mean_motion": 14.43260292,
        "meta_eccentricity": 0.00410855,
        "meta_inclination": 74.0366,
        "meta_ra_of_asc_node": 280.1744,
        "meta_arg_of_pericenter": 350.3243,
        "meta_mean_anomaly": 66.1991,
        "meta_ephemeris_type": 0,
        "meta_classification_type": "U",
        "meta_norad_cat_id": 33986,
        "meta_element_set_no": 999,
        "meta_rev_at_epoch": 88203,
        "meta_bstar": 0.00070852763,
        "meta_mean_motion_dot": 2.383e-05,
        "meta_mean_motion_ddot": 0,
        "tle_line1": "1 33986U 93036FV  25358.85180209  .00002383  00000+0  70853-3 0  9997",
        "tle_line2": "2 33986  74.0366 280.1744 0041085 350.3243  66.1991 14.43260292882037"
      },
      "geometry": {
        "type": "Point",
        "coordinates": [
          -92.54445997864089,
          -31.03933050647836
        ]
      }
    },
    {
      "type": "Feature",
      "properties": {
        "norad_id": 33990,
        "name": "COSMOS 2251 DEB",
        "group": "cosmos-2251-debris",
        "lat": 47.675429586326864,
        "lon": 65.6747852691749,
        "alt_km": 1333.6073919216678,
        "timestamp": "2025-12-26T08:37:54.972925+00:00",
        "meta_object_name": "COSMOS 2251 DEB",
        "meta_object_id": "1993-036FZ",
        "meta_epoch": "2025-12-26T03:16:49.456128",
        "meta_mean_motion": 13.50016513,
        "meta_eccentricity": 0.0407272,
        "meta_inclination": 73.9282,
        "meta_ra_of_asc_node": 264.4862,
        "meta_arg_of_pericenter": 282.3821,
        "meta_mean_anomaly": 206.1753,
        "meta_ephemeris_type": 0,
        "meta_classification_type": "U",
        "meta_norad_cat_id": 33990,
        "meta_element_set_no": 999,
        "meta_rev_at_epoch": 82910,
        "meta_bstar": 0.00072192,
        "meta_mean_motion_dot": 7.45e-06,
        "meta_mean_motion_ddot": 0,
        "tle_line1": "1 33990U 93036FZ  25360.13668352  .00000745  00000+0  72192-3 0  9994",
        "tle_line2": "2 33990  73.9282 264.4862 0407272 282.3821 206.1753 13.50016513829106"
      },
      "geometry": {
        "type": "Point",
        "coordinates": [
          65.6747852691749,
          47.675429586326864
        ]
      }
    },
    {
      "type": "Feature",
      "properties": {
        "norad_id": 33992,
        "name": "COSMOS 2251 DEB",
        "group": "cosmos-2251-debris",
        "lat": -48.83649439133428,
        "lon": 150.59073246984318,
        "alt_km": 714.9020975971962,
        "timestamp": "2025-12-26T08:37:54.972936+00:00",
        "meta_object_name": "COSMOS 2251 DEB",
        "meta_object_id": "1993-036GB",
        "meta_epoch": "2025-12-25T23:42:31.497984",
        "meta_mean_motion": 14.66322147,
        "meta_eccentricity": 0.0051929,
        "meta_inclination": 74.0248,
        "meta_ra_of_asc_node": 312.1814,
        "meta_arg_of_pericenter": 65.9916,
        "meta_mean_anomaly": 3.5037,
        "meta_ephemeris_type": 0,
        "meta_classification_type": "U",
        "meta_norad_cat_id": 33992,
        "meta_element_set_no": 999,
        "meta_rev_at_epoch": 89319,
        "meta_bstar": 0.0008513,
        "meta_mean_motion_dot": 4.765e-05,
        "meta_mean_motion_ddot": 0,
        "tle_line1": "1 33992U 93036GB  25359.98786456  .00004765  00000+0  85130-3 0  9995",
        "tle_line2": "2 33992  74.0248 312.1814 0051929  65.9916   3.5037 14.66322147893199"
      },
      "geometry": {
        "type": "Point",
        "coordinates": [
          150.59073246984318,
          -48.83649439133428
        ]
      }
    },
    {
      "type": "Feature",
      "properties": {
        "norad_id": 33994,
        "name": "COSMOS 2251 DEB",
        "group": "cosmos-2251-debris",
        "lat": -2.8557008055016864,
        "lon": 164.38740004418952,
        "alt_km": 748.8147424428162,
        "timestamp": "2025-12-26T08:37:54.972946+00:00",
        "meta_object_name": "COSMOS 2251 DEB",
        "meta_object_id": "1993-036GD",
        "meta_epoch": "2025-12-26T04:11:22.280352",
        "meta_mean_motion": 14.41222826,
        "meta_eccentricity": 0.0024034,
        "meta_inclination": 74.0415,
        "meta_ra_of_asc_node": 165.5477,
        "meta_arg_of_pericenter": 297.6313,
        "meta_mean_anomaly": 179.2881,
        "meta_ephemeris_type": 0,
        "meta_classification_type": "U",
        "meta_norad_cat_id": 33994,
        "meta_element_set_no": 999,
        "meta_rev_at_epoch": 88613,
        "meta_bstar": 9.9173e-05,
        "meta_mean_motion_dot": 2.95e-06,
        "meta_mean_motion_ddot": 0,
        "tle_line1": "1 33994U 93036GD  25360.17456343  .00000295  00000+0  99173-4 0  9996",
        "tle_line2": "2 33994  74.0415 165.5477 0024034 297.6313 179.2881 14.41222826886134"
      },
      "geometry": {
        "type": "Point",
        "coordinates": [
          164.38740004418952,
          -2.8557008055016864
        ]
      }
    },
    {
      "type": "Feature",
      "properties": {
        "norad_id": 33995,
        "name": "COSMOS 2251 DEB",
        "group": "cosmos-2251-debris",
        "lat": 57.29075178544817,
        "lon": -111.98674918922106,
        "alt_km": 728.603097103799,
        "timestamp": "2025-12-26T08:37:54.972956+00:00",
        "meta_object_name": "COSMOS 2251 DEB",
        "meta_object_id": "1993-036GE",
        "meta_epoch": "2025-12-25T17:01:24.888576",
        "meta_mean_motion": 14.34833679,
        "meta_eccentricity": 0.00592298,
        "meta_inclination": 74.0614,
        "meta_ra_of_asc_node": 95.6244,
        "meta_arg_of_pericenter": 106.3202,
        "meta_mean_anomaly": 254.4476,
        "meta_ephemeris_type": 0,
        "meta_classification_type": "U",
        "meta_norad_cat_id": 33995,
        "meta_element_set_no": 999,
        "meta_rev_at_epoch": 87705,
        "meta_bstar": 0.00083404583,
        "meta_mean_motion_dot": 2.39e-05,
        "meta_mean_motion_ddot": 0,
        "tle_line1": "1 33995U 93036GE  25359.70931584  .00002390  00000+0  83405-3 0  9997",
        "tle_line2": "2 33995  74.0614  95.6244 0059229 106.3202 254.4476 14.34833679877051"
      },
      "geometry": {
        "type": "Point",
        "coordinates": [
          -111.98674918922106,
          57.29075178544817
        ]
      }
    },
    {
      "type": "Feature",
      "properties": {
        "norad_id": 33999,
        "name": "COSMOS 2251 DEB",
        "group": "cosmos-2251-debris",
        "lat": 35.920904351879535,
        "lon": 11.54531133894786,
        "alt_km": 593.9662272973101,
        "timestamp": "2025-12-26T08:37:54.972966+00:00",
        "meta_object_name": "COSMOS 2251 DEB",
        "meta_object_id": "1993-036GJ",
        "meta_epoch": "2025-12-25T15:48:48.190176",
        "meta_mean_motion": 14.83609193,
        "meta_eccentricity": 0.0044371,
        "meta_inclination": 73.9178,
        "meta_ra_of_asc_node": 205.0064,
        "meta_arg_of_pericenter": 96.554,
        "meta_mean_anomaly": 264.0692,
        "meta_ephemeris_type": 0,
        "meta_classification_type": "U",
        "meta_norad_cat_id": 33999,
        "meta_element_set_no": 999,
        "meta_rev_at_epoch": 89442,
        "meta_bstar": 0.0012836,
        "meta_mean_motion_dot": 0.00010754,
        "meta_mean_motion_ddot": 0,
        "tle_line1": "1 33999U 93036GJ  25359.65889109  .00010754  00000+0  12836-2 0  9992",
        "tle_line2": "2 33999  73.9178 205.0064 0044371  96.5540 264.0692 14.83609193894425"
      },
      "geometry": {
        "type": "Point",
        "coordinates": [
          11.54531133894786,
          35.920904351879535
        ]
      }
    },
    {
      "type": "Feature",
      "properties": {
        "norad_id": 34001,
        "name": "COSMOS 2251 DEB",
        "group": "cosmos-2251-debris",
        "lat": 25.300222373722082,
        "lon": -95.68055379172654,
        "alt_km": 757.7931856542382,
        "timestamp": "2025-12-26T08:37:54.972976+00:00",
        "meta_object_name": "COSMOS 2251 DEB",
        "meta_object_id": "1993-036GL",
        "meta_epoch": "2025-12-26T02:24:35.131104",
        "meta_mean_motion": 14.37113172,
        "meta_eccentricity": 0.00205,
        "meta_inclination": 74.0384,
        "meta_ra_of_asc_node": 257.0206,
        "meta_arg_of_pericenter": 335.395,
        "meta_mean_anomaly": 150.1562,
        "meta_ephemeris_type": 0,
        "meta_classification_type": "U",
        "meta_norad_cat_id": 34001,
        "meta_element_set_no": 999,
        "meta_rev_at_epoch": 88338,
        "meta_bstar": 0.00016243,
        "meta_mean_motion_dot": 4.57e-06,
        "meta_mean_motion_ddot": 0,
        "tle_line1": "1 34001U 93036GL  25360.10040661  .00000457  00000+0  16243-3 0  9997",
        "tle_line2": "2 34001  74.0384 257.0206 0020500 335.3950 150.1562 14.37113172883383"
      },
      "geometry": {
        "type": "Point",
        "coordinates": [
          -95.68055379172654,
          25.300222373722082
        ]
      }
    }
  ]
}